IRIDIUM 26              
1 24903U 97043A   25150.91866669  .00000433  00000+0  13918-3 0  9999
2 24903  86.3941 117.8768 0002421  91.3772 268.7702 14.37131746454267
IRIDIUM 22              
1 24907U 97043E   25150.90391444  .00000381  00000+0  12442-3 0  9999
2 24907  86.3946 121.4071 0002363  87.3500 272.7967 14.35946511454296
DUMMY MASS 1            
1 24925U 97048A   25150.92049584  .00000412  00000+0  42924-4 0  9995
2 24925  86.3340 143.3124 0005921 186.4645 173.6505 14.86972707502563
DUMMY MASS 2            
1 24926U 97048B   25150.94706926  .00000409  00000+0  42846-4 0  9997
2 24926  86.3342 144.9037 0006186 201.6595 158.4369 14.86725141502347
IRIDIUM 29              
1 24944U 97051A   25150.93295368  .00000432  00000+0  14067-3 0  9992
2 24944  86.3960 151.1334 0002236  84.9436 275.2016 14.36453364450799
IRIDIUM 33              
1 24946U 97051C   25150.96560218  .00000271  00000+0  88391-4 0  9999
2 24946  86.3874 150.3783 0009583 125.1013 235.1083 14.34882452450279
IRIDIUM 28              
1 24948U 97051E   25150.91775778  .00000343  00000+0  10844-3 0  9992
2 24948  86.3963 148.6665 0002624  97.8179 262.3317 14.37374433451367
IRIDIUM 36              
1 24967U 97056C   25150.60536100  .00000391  00000+0  12373-3 0  9990
2 24967  86.3994 180.3789 0002591  90.2052 269.9443 14.37596214449691
